{"type": "FeatureCollection", "features": [ {"type": "Feature", "properties": {"norad_id": 66601, "name": "STARLINK-35978", "group": "last-30-days", "lat": 36.03434495881352, "lon": -53.50021280126733, "alt_km": 322.1249252945927, "timestamp": "2025-12-02T06:27:51.802596+00:00", "meta": {"OBJECT_NAME": "STARLINK-35978", "OBJECT_ID": "2025-270P", "EPOCH": "2025-12-01T16:00:03.998880", "MEAN_MOTION": 15.83480446, "ECCENTRICITY": 0.0001673, "INCLINATION": 42.9985, "RA_OF_ASC_NODE": 258.8705, "ARG_OF_PERICENTER": 256.5646, "MEAN_ANOMALY": 325.8265, "EPHEMERIS_TYPE": 0, "CLASSIFICATION_TYPE": "U", "NORAD_CAT_ID": 66601, "ELEMENT_SET_NO": 999, "REV_AT_EPOCH": 246, "BSTAR": -0.008029, "MEAN_MOTION_DOT": -0.01587438, "MEAN_MOTION_DDOT": 0}, "tle": {"line1": "1 66601U 25270P   25335.66671295 -.01587438  00000+0 -80290-2 0  9993", "line2": "2 66601  42.9985 258.8705 0001673 256.5646 325.8265 15.83480446  2460"}}, "geometry": {"type": "Point", "coordinates": [-53.50021280126733, 36.03434495881352]}}, {"type": "Feature", "properties": {"norad_id": 66602, "name": "STARLINK-36050", "group": "last-30-days", "lat": 36.94117568582373, "lon": -51.02845359775074, "alt_km": 321.8861383706735, "timestamp": "2025-12-02T06:27:51.802605+00:00", "meta": {"OBJECT_NAME": "STARLINK-36050", "OBJECT_ID": "2025-270Q", "EPOCH": "2025-12-01T16:00:03.998880", "MEAN_MOTION": 15.83486522, "ECCENTRICITY": 0.0001556, "INCLINATION": 42.9985, "RA_OF_ASC_NODE": 258.865, "ARG_OF_PERICENTER": 261.3844, "MEAN_ANOMALY": 323.1918, "EPHEMERIS_TYPE": 0, "CLASSIFICATION_TYPE": "U", "NORAD_CAT_ID": 66602, "ELEMENT_SET_NO": 999, "REV_AT_EPOCH": 252, "BSTAR": -0.0080766, "MEAN_MOTION_DOT": -0.01595958, "MEAN_MOTION_DDOT": 0}, "tle": {"line1": "1 66602U 25270Q   25335.66671295 -.01595958  00000+0 -80766-2 0  9998", "line2": "2 66602  42.9985 258.8650 0001556 261.3844 323.1918 15.83486522  2528"}}, "geometry": {"type": "Point", "coordinates": [-51.02845359775074, 36.94117568582373]}}, {"type": "Feature", "properties": {"norad_id": 66603, "name": "STARLINK-36048", "group": "last-30-days", "lat": 37.814683966406754, "lon": -48.43942637513519, "alt_km": 321.9155837371618, "timestamp": "2025-12-02T06:27:51.802615+00:00", "meta": {"OBJECT_NAME": "STARLINK-36048", "OBJECT_ID": "2025-270R", "EPOCH": "2025-12-01T16:00:03.998880", "MEAN_MOTION": 15.8349415, "ECCENTRICITY": 0.0001675, "INCLINATION": 42.9987, "RA_OF_ASC_NODE": 258.8594, "ARG_OF_PERICENTER": 259.5355, "MEAN_ANOMALY": 327.2873, "EPHEMERIS_TYPE": 0, "CLASSIFICATION_TYPE": "U", "NORAD_CAT_ID": 66603, "ELEMENT_SET_NO": 999, "REV_AT_EPOCH": 252, "BSTAR": -0.0081665, "MEAN_MOTION_DOT": -0.01612047, "MEAN_MOTION_DDOT": 0}, "tle": {"line1": "1 66603U 25270R   25335.66671295 -.01612047  00000+0 -81665-2 0  9997", "line2": "2 66603  42.9987 258.8594 0001675 259.5355 327.2873 15.83494150  2527"}}, "geometry": {"type": "Point", "coordinates": [-48.43942637513519, 37.814683966406754]}}, {"type": "Feature", "properties": {"norad_id": 66604, "name": "STARLINK-35977", "group": "last-30-days", "lat": 38.4919191044499, "lon": -46.25669307209453, "alt_km": 321.77685356980146, "timestamp": "2025-12-02T06:27:51.802630+00:00", "meta": {"OBJECT_NAME": "STARLINK-35977", "OBJECT_ID": "2025-270S", "EPOCH": "2025-12-01T16:00:03.998880", "MEAN_MOTION": 15.83526926, "ECCENTRICITY": 0.0001657, "INCLINATION": 42.9987, "RA_OF_ASC_NODE": 258.855, "ARG_OF_PERICENTER": 255.1952, "MEAN_ANOMALY": 333.4134, "EPHEMERIS_TYPE": 0, "CLASSIFICATION_TYPE": "U", "NORAD_CAT_ID": 66604, "ELEMENT_SET_NO": 999, "REV_AT_EPOCH": 262, "BSTAR": -0.0081829, "MEAN_MOTION_DOT": -0.01617075, "MEAN_MOTION_DDOT": 0}, "tle": {"line1": "1 66604U 25270S   25335.66671295 -.01617075  00000+0 -81829-2 0  9996", "line2": "2 66604  42.9987 258.8550 0001657 255.1952 333.4134 15.83526926  2622"}}, "geometry": {"type": "Point", "coordinates": [-46.25669307209453, 38.4919191044499]}}, {"type": "Feature", "properties": {"norad_id": 66605, "name": "STARLINK-36052", "group": "last-30-days", "lat": 39.13798522350536, "lon": -43.99626411152279, "alt_km": 321.6483174783916, "timestamp": "2025-12-02T06:27:51.802640+00:00", "meta": {"OBJECT_NAME": "STARLINK-36052", "OBJECT_ID": "2025-270T", "EPOCH": "2025-12-01T16:00:03.998880", "MEAN_MOTION": 15.83557272, "ECCENTRICITY": 0.0001695, "INCLINATION": 42.9987, "RA_OF_ASC_NODE": 258.8505, "ARG_OF_PERICENTER": 255.4158, "MEAN_ANOMALY": 335.0133, "EPHEMERIS_TYPE": 0, "CLASSIFICATION_TYPE": "U", "NORAD_CAT_ID": 66605, "ELEMENT_SET_NO": 999, "REV_AT_EPOCH": 262, "BSTAR": -0.0082038, "MEAN_MOTION_DOT": -0.01622765, "MEAN_MOTION_DDOT": 0}, "tle": {"line1": "1 66605U 25270T   25335.66671295 -.01622765  00000+0 -82038-2 0  9992", "line2": "2 66605  42.9987 258.8505 0001695 255.4158 335.0133 15.83557272  2621"}}, "geometry": {"type": "Point", "coordinates": [-43.99626411152279, 39.13798522350536]}}, {"type": "Feature", "properties": {"norad_id": 66606, "name": "STARLINK-36063", "group": "last-30-days", "lat": 40.400721083499796, "lon": -38.87936807010666, "alt_km": 321.5225928366426, "timestamp": "2025-12-02T06:27:51.802650+00:00", "meta": {"OBJECT_NAME": "STARLINK-36063", "OBJECT_ID": "2025-270U", "EPOCH": "2025-12-01T16:00:03.998880", "MEAN_MOTION": 15.83600704, "ECCENTRICITY": 0.0001705, "INCLINATION": 42.9988, "RA_OF_ASC_NODE": 258.84, "ARG_OF_PERICENTER": 255.3763, "MEAN_ANOMALY": 339.1559, "EPHEMERIS_TYPE": 0, "CLASSIFICATION_TYPE": "U", "NORAD_CAT_ID": 66606, "ELEMENT_SET_NO": 999, "REV_AT_EPOCH": 262, "BSTAR": -0.0084163, "MEAN_MOTION_DOT": -0.01662219, "MEAN_MOTION_DDOT": 0}, "tle": {"line1": "1 66606U 25270U   25335.66671295 -.01662219  00000+0 -84163-2 0  9992", "line2": "2 66606  42.9988 258.8400 0001705 255.3763 339.1559 15.83600704  2626"}}, "geometry": {"type": "Point", "coordinates": [-38.87936807010666, 40.400721083499796]}}, {"type": "Feature", "properties": {"norad_id": 66607, "name": "STARLINK-35993", "group": "last-30-days", "lat": 39.843684181770385, "lon": -41.27426115621597, "alt_km": 321.5784294054274, "timestamp": "2025-12-02T06:27:51.802660+00:00", "meta": {"OBJECT_NAME": "STARLINK-35993", "OBJECT_ID": "2025-270V", "EPOCH": "2025-12-01T16:00:03.998880", "MEAN_MOTION": 15.83565253, "ECCENTRICITY": 0.0001624, "INCLINATION": 42.9989, "RA_OF_ASC_NODE": 258.8449, "ARG_OF_PERICENTER": 254.1167, "MEAN_ANOMALY": 338.55, "EPHEMERIS_TYPE": 0, "CLASSIFICATION_TYPE": "U", "NORAD_CAT_ID": 66607, "ELEMENT_SET_NO": 999, "REV_AT_EPOCH": 252, "BSTAR": -0.0083314, "MEAN_MOTION_DOT": -0.01645159, "MEAN_MOTION_DDOT": 0}, "tle": {"line1": "1 66607U 25270V   25335.66671295 -.01645159  00000+0 -83314-2 0  9994", "line2": "2 66607  42.9989 258.8449 0001624 254.1167 338.5500 15.83565253  2523"}}, "geometry": {"type": "Point", "coordinates": [-41.27426115621597, 39.843684181770385]}}, {"type": "Feature", "properties": {"norad_id": 66608, "name": "STARLINK-36036", "group": "last-30-days", "lat": 40.90592031923475, "lon": -36.45399375730193, "alt_km": 321.39250748818085, "timestamp": "2025-12-02T06:27:51.802670+00:00", "meta": {"OBJECT_NAME": "STARLINK-36036", "OBJECT_ID": "2025-270W", "EPOCH": "2025-12-01T16:00:03.998880", "MEAN_MOTION": 15.83634547, "ECCENTRICITY": 0.0001648, "INCLINATION": 42.9989, "RA_OF_ASC_NODE": 258.8356, "ARG_OF_PERICENTER": 255.9791, "MEAN_ANOMALY": 340.419, "EPHEMERIS_TYPE": 0, "CLASSIFICATION_TYPE": "U", "NORAD_CAT_ID": 66608, "ELEMENT_SET_NO": 999, "REV_AT_EPOCH": 246, "BSTAR": -0.0085117, "MEAN_MOTION_DOT": -0.0168082, "MEAN_MOTION_DDOT": 0}, "tle": {"line1": "1 66608U 25270W   25335.66671295 -.01680820  00000+0 -85117-2 0  9992", "line2": "2 66608  42.9989 258.8356 0001648 255.9791 340.4190 15.83634547  2462"}}, "geometry": {"type": "Point", "coordinates": [-36.45399375730193, 40.90592031923475]}}, {"type": "Feature", "properties": {"norad_id": 66609, "name": "STARLINK-36034", "group": "last-30-days", "lat": 41.355286664713766, "lon": -34.01649279726614, "alt_km": 321.24433543606756, "timestamp": "2025-12-02T06:27:51.802680+00:00", "meta": {"OBJECT_NAME": "STARLINK-36034", "OBJECT_ID": "2025-270X", "EPOCH": "2025-12-01T16:00:03.998880", "MEAN_MOTION": 15.83665773, "ECCENTRICITY": 0.0001622, "INCLINATION": 42.9989, "RA_OF_ASC_NODE": 258.831, "ARG_OF_PERICENTER": 261.3925, "MEAN_ANOMALY": 336.8441, "EPHEMERIS_TYPE": 0, "CLASSIFICATION_TYPE": "U", "NORAD_CAT_ID": 66609, "ELEMENT_SET_NO": 999, "REV_AT_EPOCH": 246, "BSTAR": -0.0085624, "MEAN_MOTION_DOT": -0.01691638, "MEAN_MOTION_DDOT": 0}, "tle": {"line1": "1 66609U 25270X   25335.66671295 -.01691638  00000+0 -85624-2 0  9995", "line2": "2 66609  42.9989 258.8310 0001622 261.3925 336.8441 15.83665773  2468"}}, "geometry": {"type": "Point", "coordinates": [-34.01649279726614, 41.355286664713766]}}, {"type": "Feature", "properties": {"norad_id": 66610, "name": "STARLINK-35680", "group": "last-30-days", "lat": 41.768086889569986, "lon": -31.440785228608114, "alt_km": 321.19884622708105, "timestamp": "2025-12-02T06:27:51.802692+00:00", "meta": {"OBJECT_NAME": "STARLINK-35680", "OBJECT_ID": "2025-270Y", "EPOCH": "2025-12-01T18:00:02.998944", "MEAN_MOTION": 15.83383649, "ECCENTRICITY": 0.0001703, "INCLINATION": 42.9989, "RA_OF_ASC_NODE": 258.3144, "ARG_OF_PERICENTER": 256.7919, "MEAN_ANOMALY": 98.9941, "EPHEMERIS_TYPE": 0, "CLASSIFICATION_TYPE": "U", "NORAD_CAT_ID": 66610, "ELEMENT_SET_NO": 999, "REV_AT_EPOCH": 274, "BSTAR": -0.0089162, "MEAN_MOTION_DOT": -0.01731317, "MEAN_MOTION_DDOT": 0}, "tle": {"line1": "1 66610U 25270Y   25335.75003471 -.01731317  00000+0 -89162-2 0  9992", "line2": "2 66610  42.9989 258.3144 0001703 256.7919  98.9941 15.83383649  2742"}}, "geometry": {"type": "Point", "coordinates": [-31.440785228608114, 41.768086889569986]}}]}